ORBCOMM-X               
1 21576U 91050C   25069.16567121  .00000660  00000+0  20944-3 0  9990
2 21576  98.3539 137.7442 0004755 119.4610 240.7055 14.43126798767830
ORBCOMM FM01            
1 23545U 95017A   25069.60488179  .00008643  00000+0  94421-3 0  9999
2 23545  69.9656 319.6727 0002282 180.9748 179.1402 14.88167087597834
ORBCOMM FM02            
1 23546U 95017B   25069.18949948  .00011321  00000+0  12209-2 0  9999
2 23546  69.9678 340.3401 0002921 156.3556 203.7732 14.88581132597418
ORBCOMM FM08            
1 25112U 97084A   25069.56381323  .00002637  00000+0  78515-3 0  9998
2 25112  45.0127 121.1418 0004080 123.7768 236.3473 14.45251892427109
ORBCOMM FM10            
1 25113U 97084B   25069.53055294  .00002339  00000+0  70415-3 0  9991
2 25113  45.0142 123.5110 0002133  63.4977 296.6093 14.45047458602249
ORBCOMM FM11            
1 25114U 97084C   25069.58734939  .00002347  00000+0  70981-3 0  9994
2 25114  45.0125 123.6949 0002929  70.7576 289.3592 14.44805806427247
ORBCOMM FM12            
1 25115U 97084D   25069.55133495  .00002467  00000+0  74391-3 0  9994
2 25115  45.0133 123.6287 0001982  61.7539 298.3512 14.44824512427246
ORBCOMM FM09            
1 25116U 97084E   25069.57557730  .00002307  00000+0  69987-3 0  9997
2 25116  45.0137 124.3521 0003533  46.6960 313.4185 14.44718854427217
